#dP2022 10  7  0  0  0.00000000      96 __u+U ITR00 FIT  IAC
## 2230 432000.00000000   900.00000000 59859 0.0000000000000
+  119   C06C07C08C09C10C11C12C13C14C16C19C20C21C22C23C24C25
+        C26C27C28C29C30C32C33C34C35C36C37C38C39C40C41C42C43
+        C44C45C46E01E02E03E04E05E07E08E09E10E11E12E13E14E15
+        E18E19E21E24E25E26E27E30E31E33E34E36G01G02G03G04G05
+        G06G07G08G09G10G11G12G13G14G15G16G17G18G19G20G21G22
+        G23G24G25G26G27G28G29G30G31G32J02J03J04R01R02R03R04
+        R05R07R08R09R11R12R13R14R15R17R18R19R20R21R22R24R25
++         9  7  9  7  7  8  8  7  8  8  7  6  7  5  5  7  6
++         7  8  7  6  7  5  6  7  5  6  7  8  7  7  7  9  7
++         7  7  7  5  6  4  6  6  6  7  6  6  6  7  5  5  6
++         6  5  7  7  6  6  6  6  7  5  6  6  7  7  0  5  6
++         7  5  5  6  6  6  5  6  5  6  5  5  6  7  6  7  6
++         6  5  5  6  5  6  7  5  6  7  8  7  8  6  7  7  8
++         7  6  6  8  7  7  7  7  5  6  6  8  8  7  0  8  0
%c M  cc GPS ccc cccc cccc cccc cccc ccccc ccccc ccccc ccccc
%c cc cc ccc ccc cccc cccc cccc cccc ccccc ccccc ccccc ccccc
%f  0.0000000  0.000000000  0.00000000000  0.000000000000000
%f  0.0000000  0.000000000  0.00000000000  0.000000000000000
%i    0    0    0    0      0      0      0      0         0
%i    0    0    0    0      0      0      0      0         0
/* INFORMATION & ANALYSIS CENTER (IAC)      ULTRA-RAPID DATA
/* S/V CLOCKS ARE ALIGNED TO GNSS TIME                      
/* G:C1WC2W R:C1PC2P E:C1XC5X C:C2IC6I J:C1CC2S             
/* PCV:IGS14_2218 OL/AL:FES2004  NONE     YN ORB:CoN CLK:CoN
*  2022 10 07  3  0  0.00000000
PC06 -14772.614119  39417.723755  -4080.278713    902.716836
PC07  -3550.977925  31134.281510 -28094.809254   -241.857744
PC08 -15677.097565  20950.436822  32993.518607    488.897418
PC09  -9398.569640  39085.674983 -13198.750784   -842.077842
PC10   3896.647783  33941.093576 -24095.953498     87.175263
PC11 -13772.082289  22716.950000  -8410.255363   -366.132593
PC12 -16914.013371   6518.386565 -21169.902522   -491.731311
PC13  -5799.224581  22865.937742  35032.658056    100.194076
PC14  -8685.099255  13668.904651  22730.288569    703.575619
PC16 -17571.829309  38489.309059    485.936522    131.679217
PC19   -344.054998 -20000.566991 -19448.266155   -819.184900
PC20  14848.940738  -6764.130802 -22632.492576    870.041549
PC21 -22185.682975 -11580.849501  12370.104081   -550.069991
PC22 -16000.640405 -22348.443469  -4898.078300   -865.194127
PC23  10260.221489  13888.892372 -21914.162510   -434.857165
PC24 -25802.360339   9353.991475  -4970.982203   -492.362611
PC25  -9636.091491  17058.447223 -19869.261820      6.065154
PC26 -25649.037896  -1681.176340  10810.143642    -17.906437
PC27  15537.543456   3518.913084  22893.607918     32.076649
PC28   5935.822578  20876.691080  17539.996308     21.402029
PC29   6966.406739 -27005.436388  -1043.970124     23.409960
PC30  16165.065754 -16229.411913  15924.047830      0.368636
PC32  22271.712932  11482.055502 -12272.995663   -770.377675
PC33    317.503452  19947.756266  19503.016372   -848.132487
PC34 -15944.964954  17244.330253 -15091.910624     11.115155
PC35  -5767.842631 -21696.676713 -16565.297651     30.320413
PC36  10693.141145 -16780.738178  19595.779459   -563.794191
PC37  25067.173817   3144.102818 -11864.223512   -427.487960
PC38 -23082.938862  21937.489845  27550.493050     29.335099
PC39 -18075.422385  37774.792210   5770.711057     -0.583080
PC40  -7050.966051  26157.755305 -32245.715959     -5.548869
PC41  15688.155621  22434.370060   5466.663383   -148.474883
PC42 -15720.146923   5701.293599  22377.888384   -427.974236
PC43  -7545.995557  26873.512509    289.861579     18.216400
PC44 -15748.440272  -3200.225994 -22824.783428     73.504372
PC45 -10588.493603 -13643.161185  21920.534262     -6.710907
PC46  25094.403426 -10321.909750   6615.005693     -4.650475
PE01  15285.942700 -11298.448491  22699.806892   -542.037434
PE02 -15086.069544  11407.093274 -22759.926620    329.198132
PE03  -8383.048326  21804.276164  18164.324681   -607.213939
PE04  -4928.083416 -29126.140364  -1879.336869  -1131.216152
PE05 -17066.988428   1493.794010  24134.533447   -136.964587
PE07  15690.369085  19349.257028 -15984.166378   -711.231860
PE08   5062.961307  29101.713339   1823.325524   -611.143497
PE09 -15596.126043 -19477.298046  15929.123119   -684.347291
PE10  -5548.151120 -16091.570587 -24227.057203   -481.914489
PE11 -14897.874014  -7791.325773 -24373.158872   1903.878349
PE12   3898.570372 -21280.801560 -20202.317044   -208.638600
PE13  14207.064255   8426.780118  24564.952329    430.662221
PE14  12330.611409 -16629.611031  16088.609009     20.527172
PE15  -4118.860078  21332.763724  20103.252282    715.691436
PE18 -18920.594797   6435.231491 -23063.511428   -890.925249
PE19   9918.002223 -19621.737529 -19817.647803  -4333.863118
PE21  27510.236018   1105.992299  10880.988028   -761.971890
PE24 -24264.162037 -14403.932956   8897.230099   -877.297485
PE25 -27598.052610  -1338.225057 -10597.285729   -589.542909
PE26  24248.658988  -9914.979626  13795.258828  -1697.951857
PE27  24934.314561  13818.272600  -7980.480374   -409.378798
PE30   6725.628618  18303.600637 -22275.077645   -895.917234
PE31  -7685.098977 -18283.657460  21985.257086   -505.169442
PE33  19912.100658 -21572.138156  -3799.036666   -454.452528
PE34 -19765.898557  21657.891227   3970.598904     -8.190981
PE36 -24023.362993   9288.637671 -14582.520977   -442.191765
PG01   9413.267647 -19517.137479 -15430.089835    271.644403
PG02 -11623.568799  21241.156012  11776.584145   -643.360824
PG03      0.000000      0.000000      0.000000 999999.999999
PG04   1567.733073 -25865.212889  -5585.319619   -107.572319
PG05 -14197.895311   9676.480551  20109.365243    -99.429239
PG06 -21273.471789   3091.557916 -15584.349404    483.770224
PG07  -6440.784408 -14501.846188  21670.314007    301.165459
PG08   7181.942881 -20791.477154  14580.026332    -87.730843
PG09  -7500.663137 -24859.198919   5407.230624   -286.604107
PG10  23969.233066  11651.548244   2222.350875     -6.423527
PG11 -23412.888707  11175.210244  -5598.937296    -23.107586
PG12  -3401.506847  15142.433426 -21831.321331   -289.285428
PG13 -12905.526554  13591.787505  18574.134070    401.349791
PG14 -22691.169294 -13425.919061   3685.913742    -97.505538
PG15  -4851.249842  21774.211799  13750.310699    -22.992374
PG16  19972.321460  -2850.256273  17231.380334   -525.797715
PG17 -12382.764413 -15879.282713 -16846.591018    666.314985
PG18   7000.310128  13329.630289  21868.232097     23.505382
PG19 -14800.837023  -4996.810784 -21752.031921    220.447595
PG20 -23940.398824   2403.807966  10998.548506    480.439530
PG21  15739.158665 -19811.640084  -6070.804534    158.416053
PG22  15024.576586   1594.500786 -21435.990898    341.091298
PG23  17960.594497  15668.156917  11847.097392     -0.811830
PG24 -11289.365288  21210.181621 -11166.009795    109.308774
PG25   9650.124595  17596.451839 -17823.255456    379.766566
PG26  25140.925600   2023.315157   8737.103432    231.499848
PG27  13069.895978  -9630.194678  20720.596493    201.991893
PG28 -24214.161041  -9075.573095  -4950.720320    331.966596
PG29   4351.960739  25741.295182   4596.178034   -557.628246
PG30 -16607.423096  -6040.750076  19987.913158   -537.224248
PG31  22293.114794  -3429.987914 -14527.552033   -195.917976
PG32  14616.570840  12448.922154 -18287.272112   -255.527687
PJ02 -28594.284025  15525.093494 -22227.090482     -6.638642
PJ03 -25328.767625  32311.240588  -4967.664032     -2.536224
PJ04 -26347.900769  26428.711494  25674.651883    111.667309
PR01  15640.885668   7326.138021 -18774.756337     15.867489
PR02   5803.443407 -10660.787962 -22389.176670    -22.892618
PR03  -6643.369080 -21401.439044 -12090.495616     65.024328
PR04 -15005.339882 -20074.969502   4719.854576    160.254754
PR05 -15174.723627  -7783.889683  18960.425878    100.818730
PR07   7119.922417  21675.727627  11495.381534     42.143501
PR08  15125.584288  19999.867646  -4725.800274    -67.539004
PR09 -18391.816332   8730.980126 -15397.469170     80.664178
PR11  16450.834815   7641.863960 -17913.677704     25.280838
PR12  25484.603233   -539.063012  -1143.842717     21.804083
PR13  19536.683863  -7937.458058  14342.326132    -27.559771
PR14    780.643456 -11168.426080  22934.864668     24.218021
PR15 -17220.862527  -7585.714746  17246.201030     93.347041
PR17   6551.627913 -22305.114391 -10546.353967    566.939930
PR18  -4278.378129 -12515.942855 -21785.858001     45.904084
PR19 -12563.454178   2086.207893 -22097.450743   -206.345050
PR20 -15135.735923  19045.879344  -7713.291142    -79.743961
PR21  -5689.044371  21744.015673  12028.837142   -339.557372
PR22      0.000000      0.000000      0.000000 999999.999999
PR24  14588.828684 -19727.519510   7040.521624    118.852479
PR25   4609.751920  12309.381579  21888.897898 999999.999999
EOF
